NORAD_CAT_ID,OBJECT_NAME,OBJECT_TYPE,EPOCH,MEAN_MOTION,ECCENTRICITY,INCLINATION,RA_OF_ASC_NODE,ARG_OF_PERICENTER,MEAN_ANOMALY,BSTAR,MEAN_MOTION_DOT,MEAN_MOTION_DDOT,TLE_LINE0,TLE_LINE1,TLE_LINE2,SEMIMAJOR_AXIS,PERIOD,APOGEE,PERIGEE,DECAYED
54809.0,STARLINK-5414,PAYLOAD,2023-12-06 10:47:47,15.08836384,0.0001459,53.2152,128.829,92.4273,267.6886,-8.0853e-05,-1.574e-05,0.0,0 STARLINK-5414,1 54809U 22175BD  23340.44985922 -.00001574  00000-0 -80853-4 0  9995,2 54809  53.2152 128.8290 0001459  92.4273 267.6886 15.08836384 53548,6917.891,95.438,540.766,538.747,0.0
54809.0,STARLINK-5414,PAYLOAD,2023-12-07 10:38:35,15.08838067,0.0001441,53.2163,124.3683,92.818,267.2977,2.2048e-05,6.3e-07,0.0,0 STARLINK-5414,1 54809U 22175BD  23341.44346323  .00000063  00000-0  22048-4 0  9994,2 54809  53.2163 124.3683 0001441  92.8180 267.2977 15.08838067 55852,6917.886,95.438,540.748,538.754,0.0
54809.0,STARLINK-5414,PAYLOAD,2023-12-07 18:35:30,15.08834058,0.0001968,53.2146,122.8806,99.7769,260.3446,7.9843e-05,9.83e-06,0.0,0 STARLINK-5414,1 54809U 22175BD  23341.77466367  .00000983  00000-0  79843-4 0  9997,2 54809  53.2146 122.8806 0001968  99.7769 260.3446 15.08834058 53743,6917.899,95.438,541.125,538.402,0.0
54809.0,STARLINK-5414,PAYLOAD,2023-12-08 12:04:45,15.08835655,0.000182,53.2156,119.6095,103.0634,257.0562,6.1916e-05,6.97e-06,0.0,0 STARLINK-5414,1 54809U 22175BD  23342.50330489  .00000697  00000-0  61916-4 0  9998,2 54809  53.2156 119.6095 0001820 103.0634 257.0562 15.08835655 56014,6917.894,95.438,541.018,538.5,0.0
54809.0,STARLINK-5414,PAYLOAD,2023-12-08 18:26:18,15.08837364,0.0001764,53.2156,118.4203,94.6429,265.4764,7.5956e-05,9.21e-06,0.0,0 STARLINK-5414,1 54809U 22175BD  23342.76826445  .00000921  00000-0  75956-4 0  9997,2 54809  53.2156 118.4203 0001764  94.6429 265.4764 15.08837364 56056,6917.888,95.438,540.974,538.533,0.0
54809.0,STARLINK-5414,PAYLOAD,2023-12-09 13:30:55,15.08839563,0.0001728,53.216,114.8519,93.4458,266.6731,4.105e-05,3.65e-06,0.0,0 STARLINK-5414,1 54809U 22175BD  23343.56314514  .00000365  00000-0  41050-4 0  9995,2 54809  53.2160 114.8519 0001728  93.4458 266.6731 15.08839563 56173,6917.882,95.438,540.942,538.551,0.0
54809.0,STARLINK-5414,PAYLOAD,2023-12-09 18:17:05,15.08839278,0.0001662,53.2161,113.9603,93.4294,266.6888,3.119e-05,2.08e-06,0.0,0 STARLINK-5414,1 54809U 22175BD  23343.76186551  .00000208  00000-0  31190-4 0  9995,2 54809  53.2161 113.9603 0001662  93.4294 266.6888 15.08839278 54043,6917.883,95.438,540.897,538.598,0.0
54809.0,STARLINK-5414,PAYLOAD,2023-12-10 08:35:34,15.0882636,9.58e-05,53.2175,111.2854,93.9202,266.19,-9.2042e-05,-1.752e-05,0.0,0 STARLINK-5414,1 54809U 22175BD  23344.35803891 -.00001752  00000-0 -92042-4 0  9994,2 54809  53.2175 111.2854 0000958  93.9202 266.1900 15.08826360 54136,6917.922,95.438,540.45,539.124,0.0
54809.0,STARLINK-5414,PAYLOAD,2023-12-10 14:57:07,15.08827421,0.0001262,53.2165,110.0956,103.1364,256.9769,-5.1057e-05,-1.1e-05,0.0,0 STARLINK-5414,1 54809U 22175BD  23344.62299904 -.00001100  00000-0 -51057-4 0  9996,2 54809  53.2165 110.0956 0001262 103.1364 256.9769 15.08827421 56330,6917.919,95.438,540.657,538.911,0.0
54809.0,STARLINK-5414,PAYLOAD,2023-12-11 11:37:07,15.08852312,0.0001067,53.2174,106.23,102.5386,257.5725,-0.00019491,-3.389e-05,0.0,0 STARLINK-5414,1 54809U 22175BD  23345.48411516 -.00003389  00000-0 -19491-3 0  9992,2 54809  53.2174 106.2300 0001067 102.5386 257.5725 15.08852312 54301,6917.843,95.437,540.446,538.97,0.0
54809.0,STARLINK-5414,PAYLOAD,2023-12-11 14:47:53,15.08838758,0.0001286,53.2179,105.6351,98.1613,261.9525,3.933e-05,3.38e-06,0.0,0 STARLINK-5414,1 54809U 22175BD  23345.61659527  .00000338  00000-0  39330-4 0  9997,2 54809  53.2179 105.6351 0001286  98.1613 261.9525 15.08838758 56487,6917.884,95.438,540.639,538.86,0.0
54809.0,STARLINK-5414,PAYLOAD,2023-12-12 13:03:16,15.08847203,0.0001293,53.2173,101.4715,71.0573,289.0559,0.00021489,3.134e-05,0.0,0 STARLINK-5414,1 54809U 22175BD  23346.54394644  .00003134  00000-0  21489-3 0  9998,2 54809  53.2173 101.4715 0001293  71.0573 289.0559 15.08847203 56621,6917.858,95.437,540.618,538.829,0.0
54809.0,STARLINK-5414,PAYLOAD,2023-12-12 14:38:39,15.088495,0.0001308,53.2176,101.1742,75.1315,284.9822,0.00023379,3.436e-05,0.0,0 STARLINK-5414,1 54809U 22175BD  23346.61018470  .00003436  00000-0  23379-3 0  9991,2 54809  53.2176 101.1742 0001308  75.1315 284.9822 15.08849500 54477,6917.851,95.437,540.621,538.811,0.0
54809.0,STARLINK-5414,PAYLOAD,2023-12-13 11:18:40,15.088467,0.0001454,53.2188,97.3115,97.6284,262.4873,8.2007e-05,1.018e-05,0.0,0 STARLINK-5414,1 54809U 22175BD  23347.47130697  .00001018  00000-0  82007-4 0  9990,2 54809  53.2188  97.3115 0001454  97.6284 262.4873 15.08846700 54607,6917.86,95.437,540.731,538.719,0.0
54809.0,STARLINK-5414,PAYLOAD,2023-12-13 14:29:27,15.08849005,0.0001454,53.2184,96.7152,103.4319,256.6835,5.2383e-05,5.46e-06,0.0,0 STARLINK-5414,1 54809U 22175BD  23347.60378525  .00000546  00000-0  52383-4 0  9998,2 54809  53.2184  96.7152 0001454 103.4319 256.6835 15.08849005 56787,6917.853,95.437,540.724,538.712,0.0
54809.0,STARLINK-5414,PAYLOAD,2023-12-14 11:09:28,15.08846364,0.0001484,53.2186,92.85,104.5698,255.5459,-9.3191e-05,-1.771e-05,0.0,0 STARLINK-5414,1 54809U 22175BD  23348.46490789 -.00001771  00000-0 -93191-4 0  9995,2 54809  53.2186  92.8500 0001484 104.5698 255.5459 15.08846364 54758,6917.861,95.437,540.753,538.699,0.0
54809.0,STARLINK-5414,PAYLOAD,2023-12-14 14:20:14,15.08848546,0.000145,53.2185,92.2553,102.0561,258.0594,-8.4458e-05,-1.632e-05,0.0,0 STARLINK-5414,1 54809U 22175BD  23348.59738558 -.00001632  00000-0 -84458-4 0  9990,2 54809  53.2185  92.2553 0001450 102.0561 258.0594 15.08848546 56938,6917.854,95.437,540.722,538.716,0.0
54809.0,STARLINK-5414,PAYLOAD,2023-12-15 11:00:15,15.08834852,0.0001386,53.2181,88.3895,99.348,260.7669,-7.4684e-05,-1.476e-05,0.0,0 STARLINK-5414,1 54809U 22175BD  23349.45851445 -.00001476  00000-0 -74684-4 0  9993,2 54809  53.2181  88.3895 0001386  99.3480 260.7669 15.08834852 54908,6917.896,95.438,540.72,538.802,0.0
54809.0,STARLINK-5414,PAYLOAD,2023-12-15 14:11:01,15.0883377,0.0001571,53.2182,87.791,78.6874,281.4295,-1.7415e-05,-5.65e-06,0.0,0 STARLINK-5414,1 54809U 22175BD  23349.59099537 -.00000565  00000-0 -17415-4 0  9991,2 54809  53.2182  87.7910 0001571  78.6874 281.4295 15.08833770 57088,6917.899,95.438,540.851,538.678,0.0
54809.0,STARLINK-5414,PAYLOAD,2023-12-16 12:26:25,15.08845743,0.0001407,53.2169,83.6242,74.9589,285.1559,7.7894e-05,9.52e-06,0.0,0 STARLINK-5414,1 54809U 22175BD  23350.51834703  .00000952  00000-0  77894-4 0  9992,2 54809  53.2169  83.6242 0001407  74.9589 285.1559 15.08845743 55069,6917.863,95.437,540.701,538.754,0.0
54809.0,STARLINK-5414,PAYLOAD,2023-12-16 14:01:48,15.08848397,0.0001432,53.2177,83.331,81.4577,278.6577,0.00010851,1.44e-05,0.0,0 STARLINK-5414,1 54809U 22175BD  23350.58458520  .00001440  00000-0  10851-3 0  9990,2 54809  53.2177  83.3310 0001432  81.4577 278.6577 15.08848397 57235,6917.855,95.437,540.71,538.729,0.0
54809.0,STARLINK-5414,PAYLOAD,2023-12-17 12:17:12,15.08838527,0.0001798,53.2189,79.1656,69.2885,290.83,9.3135e-05,1.194e-05,0.0,0 STARLINK-5414,1 54809U 22175BD  23351.51195573  .00001194  00000-0  93135-4 0  9993,2 54809  53.2189  79.1656 0001798  69.2885 290.8300 15.08838527 55215,6917.885,95.438,540.994,538.506,0.0
54809.0,STARLINK-5414,PAYLOAD,2023-12-18 12:07:58,15.08856435,0.000155,53.2179,74.715,82.5288,277.588,8.5264e-05,1.07e-05,0.0,0 STARLINK-5414,1 54809U 22175BD  23352.50554260  .00001070  00000-0  85264-4 0  9992,2 54809  53.2179  74.7150 0001550  82.5288 277.5880 15.08856435 55364,6917.83,95.437,540.767,538.623,0.0
54809.0,STARLINK-5414,PAYLOAD,2023-12-19 11:58:46,15.08844664,0.0001699,53.2171,70.2487,123.5398,236.5757,4.9253e-05,4.96e-06,0.0,0 STARLINK-5414,1 54809U 22175BD  23353.49914590  .00000496  00000-0  49253-4 0  9996,2 54809  53.2171  70.2487 0001699 123.5398 236.5757 15.08844664 55518,6917.866,95.437,540.906,538.556,0.0
54809.0,STARLINK-5414,PAYLOAD,2023-12-20 10:14:11,15.0883409,0.0001505,53.2177,66.0865,66.0336,294.0813,-0.00015836,-2.807e-05,0.0,0 STARLINK-5414,1 54809U 22175BD  23354.42651656 -.00002807  00000-0 -15836-3 0  9990,2 54809  53.2177  66.0865 0001505  66.0336 294.0813 15.08834090 55655,6917.898,95.438,540.805,538.722,0.0
54809.0,STARLINK-5414,PAYLOAD,2023-12-21 11:40:20,15.0885476,0.0001471,53.2178,61.3269,72.0437,288.0715,0.00039396,5.99e-05,0.0,0 STARLINK-5414,1 54809U 22175BD  23355.48634997  .00005990  00000-0  39396-3 0  9997,2 54809  53.2178  61.3269 0001471  72.0437 288.0715 15.08854760 55811,6917.835,95.437,540.718,538.683,0.0
54809.0,STARLINK-5414,PAYLOAD,2023-12-22 09:55:45,15.08839713,0.0001436,53.2177,57.1635,101.4208,258.6946,3.4556e-05,2.62e-06,0.0,0 STARLINK-5414,1 54809U 22175BD  23356.41371719  .00000262  00000-0  34556-4 0  9992,2 54809  53.2177  57.1635 0001436 101.4208 258.6946 15.08839713 55959,6917.881,95.438,540.74,538.753,0.0
54809.0,STARLINK-5414,PAYLOAD,2023-12-23 11:21:55,15.08842715,0.0001486,53.2169,52.4093,77.4502,282.6657,-6.8395e-05,-1.376e-05,0.0,0 STARLINK-5414,1 54809U 22175BD  23357.47355623 -.00001376  00000-0 -68395-4 0  9992,2 54809  53.2169  52.4093 0001486  77.4502 282.6657 15.08842715 56111,6917.872,95.437,540.765,538.709,0.0
54809.0,STARLINK-5414,PAYLOAD,2023-12-23 12:57:18,15.08848361,0.0001445,53.2172,52.1107,98.1381,261.9775,1.9575e-05,2.4e-07,0.0,0 STARLINK-5414,1 54809U 22175BD  23357.53979241  .00000024  00000-0  19575-4 0  9990,2 54809  53.2172  52.1107 0001445  98.1381 261.9775 15.08848361 58282,6917.855,95.437,540.719,538.72,0.0
54809.0,STARLINK-5414,PAYLOAD,2023-12-24 00:05:00,15.08837105,0.0001541,53.2176,50.0295,111.458,248.6576,0.00011014,1.465e-05,0.0,0 STARLINK-5414,1 54809U 22175BD  23358.00348130  .00001465  00000-0  11014-3 0  9999,2 54809  53.2176  50.0295 0001541 111.4580 248.6576 15.08837105 56191,6917.889,95.438,540.82,538.688,0.0
